IRIDIUM 158             
1 43571U 18061C   24363.58062850  .00000455  00000+0  15553-3 0  9993
2 43571  86.3966 280.5537 0001929  78.8836 281.2576 14.34216371336590
IRIDIUM 165             
1 43572U 18061D   24363.53623146  .00000205  00000+0  65965-4 0  9996
2 43572  86.3966 280.6085 0002266  85.0288 275.1166 14.34218548336614
IRIDIUM 163             
1 43575U 18061G   24363.59965775  .00000017  00000+0 -88238-6 0  9994
2 43575  86.3962 280.5171 0001879  79.7331 280.4077 14.34216507336619
IRIDIUM 156             
1 43576U 18061H   24363.50451373  .00000843  00000+0  29397-3 0  9994
2 43576  86.3964 280.5629 0001754  88.5888 271.5509 14.34215150336598
IRIDIUM 164             
1 43577U 18061J   24363.48548813  .00000832  00000+0  29013-3 0  9991
2 43577  86.3963 280.6031 0002321  88.4933 271.6528 14.34221401336630
